ONEWEB-0331             
1 49198U 21083N   25090.86433985  .00000069  00000+0  14249-3 0  9994
2 49198  87.9089  63.3823 0001847  93.4971 266.6373 13.18687514171716
ONEWEB-0333             
1 49199U 21083P   25090.85305634  .00000173  00000+0  43884-3 0  9996
2 49199  87.8952  48.1735 0001947  79.3535 280.7814 13.13469503172841
ONEWEB-0334             
1 49200U 21083Q   25091.17746189  .00000055  00000+0  10347-3 0  9996
2 49200  87.9329   2.4604 0002567  58.7405 301.3979 13.20778878179730
ONEWEB-0335             
1 49201U 21083R   25091.15268896 -.00000065  00000+0 -21257-3 0  9994
2 49201  87.8956  48.1022 0001934  88.4530 271.6821 13.13469378174186
ONEWEB-0336             
1 49202U 21083S   25090.89537272 -.00000228  00000+0 -66030-3 0  9991
2 49202  87.8956  48.1470 0002056  82.1050 278.0312 13.13469925172854
ONEWEB-0337             
1 49203U 21083T   25090.90539731 -.00000268  00000+0 -77006-3 0  9995
2 49203  87.8954  48.1443 0001755  84.9433 275.1896 13.13470772172850
ONEWEB-0338             
1 49204U 21083U   25090.77337140 -.00000246  00000+0 -63719-3 0  9993
2 49204  87.9334   2.5261 0001973  68.5138 291.6205 13.20771723178411
ONEWEB-0339             
1 49205U 21083V   25090.83781840 -.00000153  00000+0 -45380-3 0  9992
2 49205  87.8953  48.1467 0001820  78.4700 281.6633 13.13469951172820
